[
    {
        "Altitude(m)": 557154.2151634478,
        "Argument of Periapsis(deg)": 0.033114955553567506,
        "Eccentricity": 0.0,
        "Inclination(deg)": 53.0,
        "Latitude(deg)": 40.96779789649446,
        "Longitude(deg)": -119.58446826435222,
        "Mean Anomaly(deg)": 125.00346433788795,
        "RAAN(deg)": 204.95071684264008,
        "Satellite Name": "Starlink Shell 1 906",
        "Satellite Number": 906,
        "Semi-Major Axis(m)": 6931778.249405717,
        "Time(s)": 950
    },
    {
        "Altitude(m)": 557071.9135526774,
        "Argument of Periapsis(deg)": 0.03346353403307874,
        "Eccentricity": 0.0,
        "Inclination(deg)": 53.0,
        "Latitude(deg)": 40.58483208102089,
        "Longitude(deg)": -118.97082244132153,
        "Mean Anomaly(deg)": 125.63029554144462,
        "RAAN(deg)": 204.9501980725626,
        "Satellite Name": "Starlink Shell 1 906",
        "Satellite Number": 906,
        "Semi-Major Axis(m)": 6931778.249405717,
        "Time(s)": 960
    },
    {
        "Altitude(m)": 556989.2970083604,
        "Argument of Periapsis(deg)": 0.03381211251258998,
        "Eccentricity": 0.0,
        "Inclination(deg)": 53.0,
        "Latitude(deg)": 40.19816968027871,
        "Longitude(deg)": -118.36463340660701,
        "Mean Anomaly(deg)": 126.25712674500137,
        "RAAN(deg)": 204.94967930248512,
        "Satellite Name": "Starlink Shell 1 906",
        "Satellite Number": 906,
        "Semi-Major Axis(m)": 6931778.249405717,
        "Time(s)": 970
    },
    {
        "Altitude(m)": 556906.4189632623,
        "Argument of Periapsis(deg)": 0.034160690992101214,
        "Eccentricity": 0.0,
        "Inclination(deg)": 53.0,
        "Latitude(deg)": 39.80790084590049,
        "Longitude(deg)": -117.76578514239588,
        "Mean Anomaly(deg)": 126.88395794855808,
        "RAAN(deg)": 204.94916053240766,
        "Satellite Name": "Starlink Shell 1 906",
        "Satellite Number": 906,
        "Semi-Major Axis(m)": 6931778.249405717,
        "Time(s)": 980
    },
    {
        "Altitude(m)": 556823.3331931247,
        "Argument of Periapsis(deg)": 0.034509269471612446,
        "Eccentricity": 0.0,
        "Inclination(deg)": 53.0,
        "Latitude(deg)": 39.41411388510049,
        "Longitude(deg)": -117.17415987562111,
        "Mean Anomaly(deg)": 127.51078915211481,
        "RAAN(deg)": 204.9486417623302,
        "Satellite Name": "Starlink Shell 1 906",
        "Satellite Number": 906,
        "Semi-Major Axis(m)": 6931778.249405717,
        "Time(s)": 990
    }
]